STARLINK-36876          
1 67902U 26035Z   26085.36109152  .00267819  00000+0  17424-2 0  9990
2 67902  97.2879  18.6678 0002310  91.7645 268.3885 15.75167004  6475
STARLINK-36257          
1 67903U 26035AA  26085.32685519  .00254508  00000+0  16580-2 0  9996
2 67903  97.2863  18.5602 0002719  76.9065 283.2503 15.75172428  6467
STARLINK-36814          
1 67904U 26036A   26085.50002314 -.01846118  00000+0 -57211-1 0  9996
2 67904  43.0003 151.1065 0001462 271.1110 114.1723 15.36103121  6078
STARLINK-36729          
1 67905U 26036B   26085.50002314 -.02668507  00000+0 -10218+0 0  9996
2 67905  42.9996 150.7145 0002304 295.3782 246.7163 15.29604390  6077
STARLINK-36763          
1 67906U 26036C   26085.50002314  .00032617  00000+0  11618-2 0  9998
2 67906  42.9994 150.7064 0001360 273.9012 270.0037 15.28355088  6071
STARLINK-36742          
1 67907U 26036D   26085.50002314 -.02255089  00000+0 -82263-1 0  9996
2 67907  42.9998 150.6195 0001290 280.3150 300.4992 15.31139442  6073
STARLINK-36827          
1 67908U 26036E   26085.50002314  .00033044  00000+0  12065-2 0  9992
2 67908  42.9998 150.5468 0001558 272.7767 334.1847 15.27536577  6070
STARLINK-36822          
1 67909U 26036F   26085.50002314 -.02173325  00000+0 -76713-1 0  9993
2 67909  43.0006 150.5225 0001719 278.8308 341.2503 15.32042435  6070
STARLINK-36847          
1 67910U 26036G   26085.50002314 -.02170803  00000+0 -71831-1 0  9999
2 67910  42.9999 150.4938 0001613 275.7437 356.1843 15.34067966  6073
STARLINK-36736          
1 67911U 26036H   26085.50002314  .00017446  00000+0  62614-3 0  9990
2 67911  43.0005 150.3948 0001927 277.8679  29.0934 15.28401226  6074
STARLINK-36676          
1 67912U 26036J   26085.50002314  .00025035  00000+0  89388-3 0  9991
2 67912  43.0001 150.3268 0001705 291.0479  46.1389 15.28388441  6073
STARLINK-36690          
1 67913U 26036K   26085.50002314  .00029668  00000+0  10573-2 0  9997
2 67913  43.0001 150.2667 0001444 284.9759  76.2189 15.28376548  6075
STARLINK-36724          
1 67914U 26036L   26085.50002314 -.02801961  00000+0 -10348+0 0  9993
2 67914  43.0002 150.1320 0001875 278.4838 138.7521 15.30957440  6079
STARLINK-36723          
1 67915U 26036M   26085.50002314  .00022326  00000+0  79836-3 0  9991
2 67915  42.9998 150.2259 0001190 287.4584  88.8036 15.28393317  6072
STARLINK-36721          
1 67916U 26036N   26085.50002314  .00038537  00000+0  13679-2 0  9995
2 67916  43.0002 150.2581 0001817 319.9870  43.2696 15.28402438  6076
STARLINK-36722          
1 67917U 26036P   26085.50002314  .00021408  00000+0  78583-3 0  9991
2 67917  42.9992 150.0044 0001351 281.4376 184.9040 15.27553768  6070
