[{"OBJECT_NAME":"STARLINK-36876","OBJECT_ID":"2026-035Z","EPOCH":"2026-03-26T08:39:58.307328","MEAN_MOTION":15.75167004,"ECCENTRICITY":0.000231,"INCLINATION":97.2879,"RA_OF_ASC_NODE":18.6678,"ARG_OF_PERICENTER":91.7645,"MEAN_ANOMALY":268.3885,"EPHEMERIS_TYPE":0,"CLASSIFICATION_TYPE":"U","NORAD_CAT_ID":67902,"ELEMENT_SET_NO":999,"REV_AT_EPOCH":647,"BSTAR":0.0017424,"MEAN_MOTION_DOT":0.00267819,"MEAN_MOTION_DDOT":0},{"OBJECT_NAME":"STARLINK-36257","OBJECT_ID":"2026-035AA","EPOCH":"2026-03-26T07:50:40.288416","MEAN_MOTION":15.75172428,"ECCENTRICITY":0.0002719,"INCLINATION":97.2863,"RA_OF_ASC_NODE":18.5602,"ARG_OF_PERICENTER":76.9065,"MEAN_ANOMALY":283.2503,"EPHEMERIS_TYPE":0,"CLASSIFICATION_TYPE":"U","NORAD_CAT_ID":67903,"ELEMENT_SET_NO":999,"REV_AT_EPOCH":646,"BSTAR":0.001658,"MEAN_MOTION_DOT":0.00254508,"MEAN_MOTION_DDOT":0},{"OBJECT_NAME":"STARLINK-36814","OBJECT_ID":"2026-036A","EPOCH":"2026-03-26T12:00:01.999296","MEAN_MOTION":15.36103121,"ECCENTRICITY":0.0001462,"INCLINATION":43.0003,"RA_OF_ASC_NODE":151.1065,"ARG_OF_PERICENTER":271.111,"MEAN_ANOMALY":114.1723,"EPHEMERIS_TYPE":0,"CLASSIFICATION_TYPE":"U","NORAD_CAT_ID":67904,"ELEMENT_SET_NO":999,"REV_AT_EPOCH":607,"BSTAR":-0.057211,"MEAN_MOTION_DOT":-0.01846118,"MEAN_MOTION_DDOT":0},{"OBJECT_NAME":"STARLINK-36729","OBJECT_ID":"2026-036B","EPOCH":"2026-03-26T12:00:01.999296","MEAN_MOTION":15.2960439,"ECCENTRICITY":0.0002304,"INCLINATION":42.9996,"RA_OF_ASC_NODE":150.7145,"ARG_OF_PERICENTER":295.3782,"MEAN_ANOMALY":246.7163,"EPHEMERIS_TYPE":0,"CLASSIFICATION_TYPE":"U","NORAD_CAT_ID":67905,"ELEMENT_SET_NO":999,"REV_AT_EPOCH":607,"BSTAR":-0.10218,"MEAN_MOTION_DOT":-0.02668507,"MEAN_MOTION_DDOT":0},{"OBJECT_NAME":"STARLINK-36763","OBJECT_ID":"2026-036C","EPOCH":"2026-03-26T12:00:01.999296","MEAN_MOTION":15.28355088,"ECCENTRICITY":0.000136,"INCLINATION":42.9994,"RA_OF_ASC_NODE":150.7064,"ARG_OF_PERICENTER":273.9012,"MEAN_ANOMALY":270.0037,"EPHEMERIS_TYPE":0,"CLASSIFICATION_TYPE":"U","NORAD_CAT_ID":67906,"ELEMENT_SET_NO":999,"REV_AT_EPOCH":607,"BSTAR":0.0011618,"MEAN_MOTION_DOT":0.00032617,"MEAN_MOTION_DDOT":0},{"OBJECT_NAME":"STARLINK-36742","OBJECT_ID":"2026-036D","EPOCH":"2026-03-26T12:00:01.999296","MEAN_MOTION":15.31139442,"ECCENTRICITY":0.000129,"INCLINATION":42.9998,"RA_OF_ASC_NODE":150.6195,"ARG_OF_PERICENTER":280.315,"MEAN_ANOMALY":300.4992,"EPHEMERIS_TYPE":0,"CLASSIFICATION_TYPE":"U","NORAD_CAT_ID":67907,"ELEMENT_SET_NO":999,"REV_AT_EPOCH":607,"BSTAR":-0.082263,"MEAN_MOTION_DOT":-0.02255089,"MEAN_MOTION_DDOT":0},{"OBJECT_NAME":"STARLINK-36827","OBJECT_ID":"2026-036E","EPOCH":"2026-03-26T12:00:01.999296","MEAN_MOTION":15.27536577,"ECCENTRICITY":0.0001558,"INCLINATION":42.9998,"RA_OF_ASC_NODE":150.5468,"ARG_OF_PERICENTER":272.7767,"MEAN_ANOMALY":334.1847,"EPHEMERIS_TYPE":0,"CLASSIFICATION_TYPE":"U","NORAD_CAT_ID":67908,"ELEMENT_SET_NO":999,"REV_AT_EPOCH":607,"BSTAR":0.0012065,"MEAN_MOTION_DOT":0.00033044,"MEAN_MOTION_DDOT":0},{"OBJECT_NAME":"STARLINK-36822","OBJECT_ID":"2026-036F","EPOCH":"2026-03-26T12:00:01.999296","MEAN_MOTION":15.32042435,"ECCENTRICITY":0.0001719,"INCLINATION":43.0006,"RA_OF_ASC_NODE":150.5225,"ARG_OF_PERICENTER":278.8308,"MEAN_ANOMALY":341.2503,"EPHEMERIS_TYPE":0,"CLASSIFICATION_TYPE":"U","NORAD_CAT_ID":67909,"ELEMENT_SET_NO":999,"REV_AT_EPOCH":607,"BSTAR":-0.076713,"MEAN_MOTION_DOT":-0.02173325,"MEAN_MOTION_DDOT":0},{"OBJECT_NAME":"STARLINK-36847","OBJECT_ID":"2026-036G","EPOCH":"2026-03-26T12:00:01.999296","MEAN_MOTION":15.34067966,"ECCENTRICITY":0.0001613,"INCLINATION":42.9999,"RA_OF_ASC_NODE":150.4938,"ARG_OF_PERICENTER":275.7437,"MEAN_ANOMALY":356.1843,"EPHEMERIS_TYPE":0,"CLASSIFICATION_TYPE":"U","NORAD_CAT_ID":67910,"ELEMENT_SET_NO":999,"REV_AT_EPOCH":607,"BSTAR":-0.071831,"MEAN_MOTION_DOT":-0.02170803,"MEAN_MOTION_DDOT":0},{"OBJECT_NAME":"STARLINK-36736","OBJECT_ID":"2026-036H","EPOCH":"2026-03-26T12:00:01.999296","MEAN_MOTION":15.28401226,"ECCENTRICITY":0.0001927,"INCLINATION":43.0005,"RA_OF_ASC_NODE":150.3948,"ARG_OF_PERICENTER":277.8679,"MEAN_ANOMALY":29.0934,"EPHEMERIS_TYPE":0,"CLASSIFICATION_TYPE":"U","NORAD_CAT_ID":67911,"ELEMENT_SET_NO":999,"REV_AT_EPOCH":607,"BSTAR":0.00062614,"MEAN_MOTION_DOT":0.00017446,"MEAN_MOTION_DDOT":0},{"OBJECT_NAME":"STARLINK-36676","OBJECT_ID":"2026-036J","EPOCH":"2026-03-26T12:00:01.999296","MEAN_MOTION":15.28388441,"ECCENTRICITY":0.0001705,"INCLINATION":43.0001,"RA_OF_ASC_NODE":150.3268,"ARG_OF_PERICENTER":291.0479,"MEAN_ANOMALY":46.1389,"EPHEMERIS_TYPE":0,"CLASSIFICATION_TYPE":"U","NORAD_CAT_ID":67912,"ELEMENT_SET_NO":999,"REV_AT_EPOCH":607,"BSTAR":0.00089388,"MEAN_MOTION_DOT":0.00025035,"MEAN_MOTION_DDOT":0},{"OBJECT_NAME":"STARLINK-36690","OBJECT_ID":"2026-036K","EPOCH":"2026-03-26T12:00:01.999296","MEAN_MOTION":15.28376548,"ECCENTRICITY":0.0001444,"INCLINATION":43.0001,"RA_OF_ASC_NODE":150.2667,"ARG_OF_PERICENTER":284.9759,"MEAN_ANOMALY":76.2189,"EPHEMERIS_TYPE":0,"CLASSIFICATION_TYPE":"U","NORAD_CAT_ID":67913,"ELEMENT_SET_NO":999,"REV_AT_EPOCH":607,"BSTAR":0.0010573,"MEAN_MOTION_DOT":0.00029668,"MEAN_MOTION_DDOT":0},{"OBJECT_NAME":"STARLINK-36724","OBJECT_ID":"2026-036L","EPOCH":"2026-03-26T12:00:01.999296","MEAN_MOTION":15.3095744,"ECCENTRICITY":0.0001875,"INCLINATION":43.0002,"RA_OF_ASC_NODE":150.132,"ARG_OF_PERICENTER":278.4838,"MEAN_ANOMALY":138.7521,"EPHEMERIS_TYPE":0,"CLASSIFICATION_TYPE":"U","NORAD_CAT_ID":67914,"ELEMENT_SET_NO":999,"REV_AT_EPOCH":607,"BSTAR":-0.10348,"MEAN_MOTION_DOT":-0.02801961,"MEAN_MOTION_DDOT":0},{"OBJECT_NAME":"STARLINK-36723","OBJECT_ID":"2026-036M","EPOCH":"2026-03-26T12:00:01.999296","MEAN_MOTION":15.28393317,"ECCENTRICITY":0.000119,"INCLINATION":42.9998,"RA_OF_ASC_NODE":150.2259,"ARG_OF_PERICENTER":287.4584,"MEAN_ANOMALY":88.8036,"EPHEMERIS_TYPE":0,"CLASSIFICATION_TYPE":"U","NORAD_CAT_ID":67915,"ELEMENT_SET_NO":999,"REV_AT_EPOCH":607,"BSTAR":0.00079836,"MEAN_MOTION_DOT":0.00022326,"MEAN_MOTION_DDOT":0},{"OBJECT_NAME":"STARLINK-36721","OBJECT_ID":"2026-036N","EPOCH":"2026-03-26T12:00:01.999296","MEAN_MOTION":15.28402438,"ECCENTRICITY":0.0001817,"INCLINATION":43.0002,"RA_OF_ASC_NODE":150.2581,"ARG_OF_PERICENTER":319.987,"MEAN_ANOMALY":43.2696,"EPHEMERIS_TYPE":0,"CLASSIFICATION_TYPE":"U","NORAD_CAT_ID":67916,"ELEMENT_SET_NO":999,"REV_AT_EPOCH":607,"BSTAR":0.0013679,"MEAN_MOTION_DOT":0.00038537,"MEAN_MOTION_DDOT":0},{"OBJECT_NAME":"STARLINK-36722","OBJECT_ID":"2026-036P","EPOCH":"2026-03-26T12:00:01.999296","MEAN_MOTION":15.27553768,"ECCENTRICITY":0.0001351,"INCLINATION":42.9992,"RA_OF_ASC_NODE":150.0044,"ARG_OF_PERICENTER":281.4376,"MEAN_ANOMALY":184.904,"EPHEMERIS_TYPE":0,"CLASSIFICATION_TYPE":"U","NORAD_CAT_ID":67917,"ELEMENT_SET_NO":999,"REV_AT_EPOCH":607,"BSTAR":0.00078583,"MEAN_MOTION_DOT":0.00021408,"MEAN_MOTION_DDOT":0}]
